ALOS-4 (DAICHI-4)       
1 60182U 24123A   24246.23100333  .00006798  00000+0  91630-3 0  9993
2 60182  97.9219 341.7845 0001526  96.5463 263.5922 14.79470865  9330
